     3.03           N: GNSS NAV DATA    M: Mixed            RINEX VERSION / TYPE
sbp2rinex v2.2 (RTKL                    20210512 233343 UTC PGM / RUN BY / DATE 
log: corrections-conus-CAFT00USA-prod-l1l5-rtk-osr_202104292COMMENT             
format: Swift Navigation SBP, option: CONVBASE,OBSALL,EPHALLCOMMENT             
                                                            END OF HEADER       
G 9 2021  4 30  0  0  0 -.342356506735E-03 -.250111042988E-11  .000000000000E+00
      .800000000000E+02 -.104375000000E+02  .509842665565E-08 -.423693037590E+00
     -.586733222008E-06  .188263074961E-02  .574812293053E-05  .515378323936E+04
      .432000000000E+06 -.447034835815E-07 -.869907463480E+00  .186264514923E-07
      .953052848465E+00  .263937500000E+03  .183666304574E+01 -.822105672573E-08
     -.169649923743E-09  .200000000000E+01  .215500000000E+04  .100000000000E+01
      .200000000000E+01  .000000000000E+00  .139698386192E-08  .800000000000E+02
      .428117000000E+06  .400000000000E+01
G 9 2021  4 29 23 59 44 -.342355109751E-03 -.250111042988E-11  .000000000000E+00
      .560000000000E+02 -.104375000000E+02  .509842665565E-08 -.426023612382E+00
     -.586733222008E-06  .188262900338E-02  .574812293053E-05  .515378322983E+04
      .431984000000E+06 -.447034835815E-07 -.869907330355E+00  .186264514923E-07
      .953052852854E+00  .263937500000E+03  .183666006577E+01 -.822105672573E-08
     -.169649923743E-09  .200000000000E+01  .215500000000E+04  .100000000000E+01
      .200000000000E+01  .000000000000E+00  .139698386192E-08  .560000000000E+02
      .428119000000E+06  .400000000000E+01
G 9 2021  4 30  0  0  0 -.342356506735E-03 -.250111042988E-11  .000000000000E+00
      .800000000000E+02 -.104375000000E+02  .509842665565E-08 -.423693037590E+00
     -.586733222008E-06  .188263074961E-02  .574812293053E-05  .515378323936E+04
      .432000000000E+06 -.447034835815E-07 -.869907463480E+00  .186264514923E-07
      .953052848465E+00  .263937500000E+03  .183666304574E+01 -.822105672573E-08
     -.169649923743E-09  .200000000000E+01  .215500000000E+04  .100000000000E+01
      .200000000000E+01  .000000000000E+00  .139698386192E-08  .800000000000E+02
      .428122000000E+06  .400000000000E+01
G21 2021  4 29 23 59 44  .114656519145E-03  .272848410532E-11  .000000000000E+00
      .130000000000E+02 -.136843750000E+03  .458054794106E-08 -.717664120060E+00
     -.737048685551E-05  .241043226561E-01  .911019742489E-05  .515370013046E+04
      .431984000000E+06 -.309199094772E-06 -.302060190559E+01 -.670552253723E-07
      .957251576959E+00  .206468750000E+03 -.114732115282E+01 -.853214111221E-08
      .104647216119E-09  .200000000000E+01  .215500000000E+04  .100000000000E+01
      .200000000000E+01  .000000000000E+00 -.102445483208E-07  .130000000000E+02
      .428124000000E+06  .400000000000E+01
G21 2021  4 30  0  0  0  .114657450467E-03  .272848410532E-11  .000000000000E+00
      .880000000000E+02 -.136843750000E+03  .458054794106E-08 -.715330356106E+00
     -.737048685551E-05  .241043242859E-01  .911019742489E-05  .515370012474E+04
      .432000000000E+06 -.309199094772E-06 -.302060204457E+01 -.670552253723E-07
      .957251576959E+00  .206468750000E+03 -.114732118646E+01 -.853178395448E-08
      .105004373854E-09  .200000000000E+01  .215500000000E+04  .100000000000E+01
      .280000000000E+01  .000000000000E+00 -.102445483208E-07  .880000000000E+02
      .428127000000E+06  .400000000000E+01
G 9 2021  4 29 23 59 44 -.342355109751E-03 -.250111042988E-11  .000000000000E+00
      .560000000000E+02 -.104375000000E+02  .509842665565E-08 -.426023612382E+00
     -.586733222008E-06  .188262900338E-02  .574812293053E-05  .515378322983E+04
      .431984000000E+06 -.447034835815E-07 -.869907330355E+00  .186264514923E-07
      .953052852854E+00  .263937500000E+03  .183666006577E+01 -.822105672573E-08
     -.169649923743E-09  .200000000000E+01  .215500000000E+04  .100000000000E+01
      .200000000000E+01  .000000000000E+00  .139698386192E-08  .560000000000E+02
      .428130000000E+06  .400000000000E+01
G 9 2021  4 30  0  0  0 -.342356506735E-03 -.250111042988E-11  .000000000000E+00
      .800000000000E+02 -.104375000000E+02  .509842665565E-08 -.423693037590E+00
     -.586733222008E-06  .188263074961E-02  .574812293053E-05  .515378323936E+04
      .432000000000E+06 -.447034835815E-07 -.869907463480E+00  .186264514923E-07
      .953052848465E+00  .263937500000E+03  .183666304574E+01 -.822105672573E-08
     -.169649923743E-09  .200000000000E+01  .215500000000E+04  .100000000000E+01
      .200000000000E+01  .000000000000E+00  .139698386192E-08  .800000000000E+02
      .428132000000E+06  .400000000000E+01
G 9 2021  4 29 23 59 44 -.342355109751E-03 -.250111042988E-11  .000000000000E+00
      .560000000000E+02 -.104375000000E+02  .509842665565E-08 -.426023612382E+00
     -.586733222008E-06  .188262900338E-02  .574812293053E-05  .515378322983E+04
      .431984000000E+06 -.447034835815E-07 -.869907330355E+00  .186264514923E-07
      .953052852854E+00  .263937500000E+03  .183666006577E+01 -.822105672573E-08
     -.169649923743E-09  .200000000000E+01  .215500000000E+04  .100000000000E+01
      .200000000000E+01  .000000000000E+00  .139698386192E-08  .560000000000E+02
      .428139000000E+06  .400000000000E+01
G 9 2021  4 30  0  0  0 -.342356506735E-03 -.250111042988E-11  .000000000000E+00
      .800000000000E+02 -.104375000000E+02  .509842665565E-08 -.423693037590E+00
     -.586733222008E-06  .188263074961E-02  .574812293053E-05  .515378323936E+04
      .432000000000E+06 -.447034835815E-07 -.869907463480E+00  .186264514923E-07
      .953052848465E+00  .263937500000E+03  .183666304574E+01 -.822105672573E-08
     -.169649923743E-09  .200000000000E+01  .215500000000E+04  .100000000000E+01
      .200000000000E+01  .000000000000E+00  .139698386192E-08  .800000000000E+02
      .428141000000E+06  .400000000000E+01
G 9 2021  4 29 23 59 44 -.342355109751E-03 -.250111042988E-11  .000000000000E+00
      .560000000000E+02 -.104375000000E+02  .509842665565E-08 -.426023612382E+00
     -.586733222008E-06  .188262900338E-02  .574812293053E-05  .515378322983E+04
      .431984000000E+06 -.447034835815E-07 -.869907330355E+00  .186264514923E-07
      .953052852854E+00  .263937500000E+03  .183666006577E+01 -.822105672573E-08
     -.169649923743E-09  .200000000000E+01  .215500000000E+04  .100000000000E+01
      .200000000000E+01  .000000000000E+00  .139698386192E-08  .560000000000E+02
      .428145000000E+06  .400000000000E+01
G 9 2021  4 30  0  0  0 -.342356506735E-03 -.250111042988E-11  .000000000000E+00
      .800000000000E+02 -.104375000000E+02  .509842665565E-08 -.423693037590E+00
     -.586733222008E-06  .188263074961E-02  .574812293053E-05  .515378323936E+04
      .432000000000E+06 -.447034835815E-07 -.869907463480E+00  .186264514923E-07
      .953052848465E+00  .263937500000E+03  .183666304574E+01 -.822105672573E-08
     -.169649923743E-09  .200000000000E+01  .215500000000E+04  .100000000000E+01
      .200000000000E+01  .000000000000E+00  .139698386192E-08  .800000000000E+02
      .428147000000E+06  .400000000000E+01
G21 2021  4 29 23 59 44  .114656519145E-03  .272848410532E-11  .000000000000E+00
      .130000000000E+02 -.136843750000E+03  .458054794106E-08 -.717664120060E+00
     -.737048685551E-05  .241043226561E-01  .911019742489E-05  .515370013046E+04
      .431984000000E+06 -.309199094772E-06 -.302060190559E+01 -.670552253723E-07
      .957251576959E+00  .206468750000E+03 -.114732115282E+01 -.853214111221E-08
      .104647216119E-09  .200000000000E+01  .215500000000E+04  .100000000000E+01
      .200000000000E+01  .000000000000E+00 -.102445483208E-07  .130000000000E+02
      .428157000000E+06  .400000000000E+01
G21 2021  4 30  0  0  0  .114657450467E-03  .272848410532E-11  .000000000000E+00
      .880000000000E+02 -.136843750000E+03  .458054794106E-08 -.715330356106E+00
     -.737048685551E-05  .241043242859E-01  .911019742489E-05  .515370012474E+04
      .432000000000E+06 -.309199094772E-06 -.302060204457E+01 -.670552253723E-07
      .957251576959E+00  .206468750000E+03 -.114732118646E+01 -.853178395448E-08
      .105004373854E-09  .200000000000E+01  .215500000000E+04  .100000000000E+01
      .280000000000E+01  .000000000000E+00 -.102445483208E-07  .880000000000E+02
      .428162000000E+06  .400000000000E+01
G21 2021  4 29 23 59 44  .114656519145E-03  .272848410532E-11  .000000000000E+00
      .130000000000E+02 -.136843750000E+03  .458054794106E-08 -.717664120060E+00
     -.737048685551E-05  .241043226561E-01  .911019742489E-05  .515370013046E+04
      .431984000000E+06 -.309199094772E-06 -.302060190559E+01 -.670552253723E-07
      .957251576959E+00  .206468750000E+03 -.114732115282E+01 -.853214111221E-08
      .104647216119E-09  .200000000000E+01  .215500000000E+04  .100000000000E+01
      .200000000000E+01  .000000000000E+00 -.102445483208E-07  .130000000000E+02
      .428169000000E+06  .400000000000E+01
G21 2021  4 30  0  0  0  .114657450467E-03  .272848410532E-11  .000000000000E+00
      .880000000000E+02 -.136843750000E+03  .458054794106E-08 -.715330356106E+00
     -.737048685551E-05  .241043242859E-01  .911019742489E-05  .515370012474E+04
      .432000000000E+06 -.309199094772E-06 -.302060204457E+01 -.670552253723E-07
      .957251576959E+00  .206468750000E+03 -.114732118646E+01 -.853178395448E-08
      .105004373854E-09  .200000000000E+01  .215500000000E+04  .100000000000E+01
      .280000000000E+01  .000000000000E+00 -.102445483208E-07  .880000000000E+02
      .428172000000E+06  .400000000000E+01
